#aV2021 12 18  0  0  0.00000000     288 DD+AD WGS84 FIT  NGA
## 2188 518400.00000000   300.00000000 59566 0.0000000000000
+   32     1  2  3  4  5  6  7  8  9 10 11 12 13 14 15 16 17
+         18 19 20 21 22 23 24 25 26 27 28 29 30 31 32  0  0
+          0  0  0  0  0  0  0  0  0  0  0  0  0  0  0  0  0
+          0  0  0  0  0  0  0  0  0  0  0  0  0  0  0  0  0
+          0  0  0  0  0  0  0  0  0  0  0  0  0  0  0  0  0
++         2  2  2  2  2  2  2  2  2  2  2  2  2  2  2  2  2
++         2  2  2  2  2  2  2  2  2  2  2  2  2  2  2  0  0
++         0  0  0  0  0  0  0  0  0  0  0  0  0  0  0  0  0
++         0  0  0  0  0  0  0  0  0  0  0  0  0  0  0  0  0
++         0  0  0  0  0  0  0  0  0  0  0  0  0  0  0  0  0
%c cc cc ccc ccc cccc cccc cccc cccc ccccc ccccc ccccc ccccc
%c cc cc ccc ccc cccc cccc cccc cccc ccccc ccccc ccccc ccccc
%f  0.0000000  0.000000000  0.00000000000  0.000000000000000
%f  0.0000000  0.000000000  0.00000000000  0.000000000000000
%i    0    0    0    0      0      0      0      0         0
%i    0    0    0    0      0      0      0      0         0
/*      NGA, ST. LOUIS,MO.                                  
/*   EPHEMERIS COMPUTED FROM 2 DAYS OF DATA                 
/*   EPOCHA v7 SMOOTHER                                     
/*   G2139 IERS2010 SATIGS SATAPC                           
*  2021 12 18  7 25  0.00000000
P  1  20003.354980  14011.898349 -11125.543967    481.015832                    
V  1 -13354.171339  -2724.563663 -27811.175119     -0.101245                    
P  2    967.365170 -15529.807679  22184.140715   -646.030304                    
V  2  26020.221307   5479.213869   2884.252761     -0.012034                    
P  3  12762.729011  20312.178738  11409.100019    -45.495301                    
V  3   1336.198774  14674.567356 -27270.973870     -0.126265                    
P  4  11784.625450   9833.578118  21681.432892   -198.622782                    
V  4 -20543.189664  18321.125267   2781.131813      0.013639                    
P  5  -5092.302681 -25810.855029   2825.644800    -64.801461                    
V  5   3900.024560   2867.145643  31547.469456     -0.012852                    
P  6  17219.232058  -7739.708788  18777.539338    145.832561                    
V  6  22283.805014   7883.868679 -17186.372849      0.101575                    
P  7  25987.984703   5491.621690  -3391.378232    292.154590                    
V  7   3698.038185   3981.135667  30830.901771      0.044259                    
P  8   1692.797428  17519.186380 -19801.405377    -48.534245                    
V  8 -18922.786366  16697.517805  13490.537788     -0.014720                    
P  9  19618.371776  -1501.587269  17780.984753   -360.207851                    
V  9 -15061.814806  17122.229406  17957.755184      0.007692                    
P 10 -13067.720239   8256.285789 -21430.431405   -271.445523                    
V 10  -6970.486544 -26639.966921  -6263.094860     -0.090249                    
P 11   3766.261242 -14777.003021  21743.174618     11.876766                    
V 11  25992.496127   9327.404793   1821.924892     -0.034466                    
P 12 -10245.651439 -22526.074452   9569.691390   -142.461346                    
V 12    181.764770 -12654.836526 -28688.660701     -0.056044                    
P 13   7232.758657 -19354.396111 -16754.723388    231.246913                    
V 13  18105.948444 -10830.971596  20667.297926      0.058398                    
P 14  13839.789917  -7790.014847 -21283.544670    -57.012818                    
V 14   5693.607896  26449.647643  -6037.917054     -0.060739                    
P 15  -4724.191483 -17430.634874 -19781.837438    -98.308898                    
V 15  16845.800143 -17813.304767  12246.274700      0.028425                    
P 16   -153.640070  25674.658109   5500.868176   -442.122992                    
V 16  -3838.021316  -6926.867654  31254.301476     -0.059136                    
P 17  22255.783022 -12658.218933  -6686.191379    549.069217                    
V 17  -5586.661678   7439.183091 -30634.596122      0.053069                    
P 18 -25715.485508  -4841.344843  -4861.203943    277.481882                    
V 18  -5111.590158  -4156.030622  31102.299392     -0.066728                    
P 19  20713.182131 -16432.564594    885.681220     93.706142                    
V 19   2600.098810   1039.717961 -32241.578855      0.050058                    
P 20    887.114257 -23236.665383  13055.667441    517.590894                    
V 20   8547.695729  14392.910810  24751.448343     -0.001667                    
P 21  13355.762760  15079.975752 -16921.398650    154.014326                    
V 21 -22431.239664  -3250.226932 -19233.847646      0.009584                    
P 22  10915.401621  24158.076306   3147.252168   -438.724948                    
V 22  -1866.711722   4659.964900 -30769.330483      0.089790                    
P 23 -15991.883846  -4475.472124 -20766.442505     20.646010                    
V 23  -5949.922325 -25616.562283  10023.574764     -0.040922                    
P 24 -17084.455619 -14798.159333 -14555.472110    275.175062                    
V 24  17984.436579   1590.311569 -22771.524419      0.017122                    
P 25 -15528.734970 -12642.423875  17315.857681    257.470655                    
V 25  -3634.966958 -22185.847267 -18883.895976      0.057379                    
P 26  -7475.316717  18805.118677  16975.916447    166.065191                    
V 26  -8299.829169 -20370.224411  19132.164460      0.036153                    
P 27  -8581.825557  20935.954288 -13774.573190      7.170561                    
V 27 -14031.732399  10345.914709  25172.180137      0.318734                    
P 28  10313.400403 -15956.027989 -18121.400051    440.789657                    
V 28   4673.748846  23583.601676 -17381.064200     -0.077634                    
P 29 -17194.402665  -3230.406408  19962.777155   -455.508280                    
V 29  19155.001657 -16643.890824  13720.144857     -0.050906                    
P 30  23240.614161  -2364.024132 -12790.114664   -500.169884                    
V 30  14677.715518   7632.520192  24887.530755     -0.028758                    
P 31 -15716.931905   9244.375185  19352.606152   -155.592933                    
V 31 -23109.652630  -8780.387807 -14021.166116     -0.018316                    
P 32 -20656.173359  16084.549403  -3725.172366    -36.807989                    
V 32   1435.188331  -5598.126196 -31325.425165     -0.054674                    
EOF
